IRIDIUM 106             
1 41917U 17003A   23307.42955292  .00000158  00000+0  49257-4 0  9990
2 41917  86.3940 128.4006 0002088  95.4997 264.6437 14.34219456356078
IRIDIUM 103             
1 41918U 17003B   23306.92850485  .00000146  00000+0  44917-4 0  9998
2 41918  86.3939 128.5127 0001726  90.0923 270.0470 14.34218171356026
IRIDIUM 109             
1 41919U 17003C   23306.93485407  .00000148  00000+0  45619-4 0  9990
2 41919  86.3942 128.5536 0002042  82.4835 277.6592 14.34218086355992
IRIDIUM 102             
1 41920U 17003D   23307.46130014  .00000153  00000+0  47487-4 0  9993
2 41920  86.3939 128.2775 0002166  83.9619 276.1824 14.34214041356153
IRIDIUM 105             
1 41921U 17003E   23306.87382545  .00000394  00000+0  13364-3 0  9999
2 41921  86.3932  96.9299 0001991  93.1489 266.9935 14.34213715357925
IRIDIUM 104             
1 41922U 17003F   23306.91582003  .00000147  00000+0  45286-4 0  9991
2 41922  86.3941 128.5337 0001870  85.5800 274.5609 14.34217412356064
IRIDIUM 114             
1 41923U 17003G   23306.92215281  .00000113  00000+0  33207-4 0  9997
2 41923  86.3941 128.5176 0002293  95.8448 264.3009 14.34216883356048
IRIDIUM 108             
1 41924U 17003H   23307.43881653  .00000551  00000+0  18958-3 0  9998
2 41924  86.3928  96.6328 0002075  99.9616 260.1814 14.34215791357998
